CUTE-1 (CO-55)          
1 27844U 03031E   26169.02064842  .00000221  00000+0  11471-3 0  9993
2 27844  98.6736 177.5689 0009609 175.5784 184.5482 14.24336174191794
CUBESAT XI-IV (CO-57)   
1 27848U 03031J   26168.93924090  .00000186  00000+0  10079-3 0  9999
2 27848  98.6765 177.2007 0009073 194.7196 165.3719 14.23621196191482
CUBESAT XI-V            
1 28895U 05043F   26168.94617719  .00001113  00000+0  18286-3 0  9994
2 28895  98.2987 324.5839 0013704 198.2082 161.8635 14.72633352101868
CUTE-1.7+APD II (CO-65) 
1 32785U 08021C   26169.24313395  .00004157  00000+0  26362-3 0  9998
2 32785  97.8274 150.6836 0009640  35.5766 324.6103 15.09458737985352
CANX-2                  
1 32790U 08021H   26168.88637359  .00003690  00000+0  25995-3 0  9994
2 32790  97.8640 148.6774 0011418  48.7586 311.4622 15.05623552984911
SEEDS II (CO-66)        
1 32791U 08021J   26168.98425388  .00015010  00000+0  47643-3 0  9996
2 32791  97.7517 166.9199 0000950   0.1361 359.9880 15.32775092987418
SWISSCUBE               
1 35932U 09051B   26169.19492217  .00000766  00000+0  16096-3 0  9999
2 35932  98.4035  77.1008 0006026 199.5178 160.5793 14.62483315889306
BEESAT-1                
1 35933U 09051C   26168.58880448  .00000640  00000+0  13834-3 0  9997
2 35933  98.3963  76.1188 0004244 215.3453 144.7466 14.61721012889249
ITUPSAT1                
1 35935U 09051E   26169.19666220  .00000591  00000+0  13197-3 0  9994
2 35935  98.4047  75.9267 0006285 230.1057 129.9590 14.60442029888881
TISAT 1                 
1 36799U 10035E   26169.29299463  .00015546  00000+0  50955-3 0  9998
2 36799  98.0713 115.9399 0001544 166.4985 193.6296 15.31742601867876
AEROCUBE 4.5A           
1 38767U 12048K   26168.97635548  .00442913  87798-4  10009-2 0  9994
2 38767  64.6231  23.9913 0019643 225.6747 134.2807 15.96962877372780
STRAND-1                
1 39090U 13009E   26169.03071324  .00000199  00000+0  81412-4 0  9996
2 39090  98.3922 349.2443 0007770 222.4272 137.6315 14.37163663697184
BRITE-AUSTRIA           
1 39091U 13009F   26168.97430114  .00000127  00000+0  57868-4 0  9994
2 39091  98.3995 348.3904 0009175 233.8299 126.2040 14.36542409697168
NEE-01 PEGASO           
1 39151U 13018B   26168.93551597  .00002320  00000+0  22495-3 0  9990
2 39151  98.1225 313.1098 0013177 156.9110 203.2703 14.93662991710819
POPACS 2                
1 39269U 13055E   26168.91462475  .00012434  00000+0  21016-3 0  9990
2 39269  80.9908 143.3595 0416814 191.4338 167.7191 14.91227563663320
POPACS 3                
1 39270U 13055F   26167.91331004  .00008396  00000+0  19719-3 0  9993
2 39270  81.0011 229.4846 0552172  70.8295 295.1804 14.56118366638515
ZACUBE-1 (TSHEPISOSAT)  
1 39417U 13066B   26168.94052998  .00002469  00000+0  19407-3 0  9993
2 39417  97.8077 131.2813 0040898 245.0967 114.6003 15.01192546680840
WNISAT-1                
1 39423U 13066H   26168.96598646  .00000716  00000+0  13910-3 0  9993
2 39423  97.7203 318.0669 0162008 229.1202 129.5868 14.58063412666842
TRITON-1                
1 39427U 13066M   26169.24106450  .00001439  00000+0  17763-3 0  9990
2 39427  97.8251  79.0245 0088526 230.4302 128.9068 14.81708408674247
GOMX-1                  
1 39430U 13066Q   26169.27545743  .00001467  00000+0  22484-3 0  9996
2 39430  97.6476   9.6692 0130171  74.0743 287.4763 14.69463611670078
CUBEBUG-2 (LO-74)       
1 39440U 13066AA  26169.26893140  .00003955  00000+0  36657-3 0  9994
2 39440  97.8910 118.2515 0058323  25.5891 334.8194 14.93769757677156
NEE-02 KRYSAOR          
1 39441U 13066AB  26169.28612437  .00001715  00000+0  19172-3 0  9990
2 39441  97.8893 108.4928 0067615  66.6994 294.1319 14.86621952676365
FUNCUBE-1 (AO-73)       
1 39444U 13066AE  26168.91830578  .00005311  00000+0  33079-3 0  9998
2 39444  97.8280 140.3793 0035692 198.2230 161.7722 15.09498416679776
UWE-3                   
1 39446U 13066AG  26168.81721396  .00003675  00000+0  31732-3 0  9991
2 39446  97.8697 124.8951 0047468 319.0483  40.7177 14.97029101677674
BRITE-CA1 (TORONTO)     
1 40020U 14033L   26169.32872990  .00000580  00000+0  94995-4 0  9993
2 40020  97.9741 298.2356 0077216 273.2949  85.9428 14.72678097642389
DUCHIFAT-1              
1 40021U 14033M   26169.10885855  .00082132  00000+0  84010-3 0  9993
2 40021  98.0458 228.3980 0002731 118.1030 242.0504 15.64751867655892
NANOSATC-BR1            
1 40024U 14033Q   26169.05482056  .00013269  00000+0  43894-3 0  9996
2 40024  98.0715 201.5196 0004490 160.3673 199.7740 15.31480608654119
QB50P1                  
1 40025U 14033R   26169.00685221  .00006382  00000+0  31496-3 0  9994
2 40025  98.0961 180.2104 0007885 212.2174 147.8578 15.18271143653152
QB50P2                  
1 40032U 14033Y   26168.95863104  .00005583  00000+0  30133-3 0  9992
2 40032  98.0749 165.8867 0008094 160.8640 199.2897 15.15166479652783
PERSEUS-M2              
1 40037U 14033AD  26169.26747791  .00001363  00000+0  12852-3 0  9995
2 40037  97.9964 119.8301 0010640 300.3512  59.6656 14.95511784650944
